{"type": "FeatureCollection", "features": [{"type": "Feature", "properties": {"name": "Outside Vermont mask", "purpose": "Opaque overlay to hide basemap content outside Vermont"}, "geometry": {"type": "Polygon", "coordinates": [[[-179.9, -85.0], [-179.9, 85.0], [179.9, 85.0], [179.9, -85.0], [-179.9, -85.0]], [[-71.5010202485413, 45.0134549403033], [-71.57251131586, 45.0125076777412], [-71.6126569915041, 45.0127243819382], [-71.6967974929331, 45.0113077101524], [-71.754101853888, 45.0113464360149], [-71.9139816772564, 45.0076376932075], [-71.9457543360888, 45.0083792649831], [-72.054284369605, 45.0062290621794], [-72.1104107573453, 45.0056261678587], [-72.1730288411057, 45.0058509863517], [-72.3119554203423, 45.0037978301314], [-72.3291999389118, 45.0049461225798], [-72.3686324369478, 45.0062254107204], [-72.3880053821203, 45.006269801177], [-72.4504387996427, 45.0085717607191], [-72.4790253788751, 45.0088388413817], [-72.5309199143816, 45.0077803926202], [-72.5553993786935, 45.0080275949716], [-72.5847514324966, 45.0115775434965], [-72.6043028574812, 45.013121982162], [-72.6346772831236, 45.014696978713], [-72.7018714139403, 45.0156847789817], [-72.7481771103467, 45.0156303689713], [-72.8470069167116, 45.0166740129321], [-72.9668538197199, 45.014156573523], [-73.0653630331763, 45.0159707417857], [-73.3429344042862, 45.0107250128856], [-73.3495254470077, 44.9979274373013], [-73.3507671884187, 44.9939399782109], [-73.3541324908625, 44.9892802770988], [-73.3547629615905, 44.9868045260684], [-73.3533852005494, 44.9815461076623], [-73.35050581574, 44.9765078107805], [-73.347288001304, 44.9727981754355], [-73.3400949549801, 44.9671132102131], [-73.3381882370799, 44.9648073560725], [-73.338020575839, 44.9609966450395], [-73.3396282520263, 44.945050621711], [-73.3385661264588, 44.924357974048], [-73.3387159845594, 44.919048769655], [-73.339701503517, 44.9163894083086], [-73.3406744064135, 44.9152247375179], [-73.3434190906516, 44.9133381522376], [-73.3482451806271, 44.911256263176], [-73.352533113108, 44.9084462267794], [-73.3548301405201, 44.9064088267793], [-73.3573509327345, 44.9027994100916], [-73.3611626282122, 44.8954097081682], [-73.3663788678715, 44.8753380590575], [-73.3689364000776, 44.8673177526693], [-73.371707044177, 44.8626667253545], [-73.3760460434799, 44.8604063034974], [-73.3778540340253, 44.8579293400207], [-73.3798508570431, 44.8567964031684], [-73.3794788498165, 44.8518399000214], [-73.3815893027514, 44.8492320399923], [-73.3804274648697, 44.8475681112288], [-73.3813563661971, 44.8448990756346], [-73.3795093219521, 44.8435849900354], [-73.3799015109386, 44.8395847508364], [-73.3791583958737, 44.8377106046403], [-73.3753788293192, 44.8362351134777], [-73.3706223179848, 44.8300370336964], [-73.3675891454749, 44.8275810974789], [-73.3573565387981, 44.8228072421859], [-73.3541736872959, 44.8208710380885], [-73.3502493437283, 44.8163858314741], [-73.3445258129017, 44.8124227860766], [-73.3393695739639, 44.8069554284771], [-73.3351746910078, 44.8042658020634], [-73.3335208958041, 44.7983449635099], [-73.3333434251061, 44.7872794169771], [-73.3349613926247, 44.7830442871294], [-73.3452407736496, 44.775424813937], [-73.346675914496, 44.7736727868628], [-73.3490665555825, 44.7669463705332], [-73.3514018156148, 44.7630908156566], [-73.354809758943, 44.7545431942822], [-73.3577452417164, 44.7508136731318], [-73.3632182897947, 44.7459047649396], [-73.3656200270387, 44.7418163176683], [-73.3650451789556, 44.7257298154535], [-73.3655713276164, 44.7185357459039], [-73.3652180341211, 44.7107345031869], [-73.3658044462182, 44.7071601167347], [-73.3654136269358, 44.7018159010751], [-73.3659852153364, 44.6979897353546], [-73.365738214878, 44.6969512203665], [-73.3620292382631, 44.6958896643901], [-73.3612798038552, 44.694987307889], [-73.3652456948971, 44.6877616285602], [-73.3700750026436, 44.6849766017826], [-73.3673690036549, 44.6810222671674], [-73.3673147141883, 44.678626297775], [-73.3719331213159, 44.6770991607496], [-73.3711237263522, 44.6729378313217], [-73.3727669949724, 44.6690449384488], [-73.3699607503447, 44.6657015637764], [-73.3697687171688, 44.6637718054696], [-73.3703312833725, 44.6627804907375], [-73.3731605178844, 44.6627579040337], [-73.3744021305772, 44.6622264523037], [-73.3769126298449, 44.6584186408919], [-73.3789140019575, 44.6570425799646], [-73.3790834636168, 44.6558748021137], [-73.3780278941152, 44.653024062666], [-73.3784303385642, 44.6520480659463], [-73.3806635060482, 44.6495777782521], [-73.3839638872982, 44.647724454073], [-73.3843814845189, 44.6467673065277], [-73.3800298500661, 44.6430052419291], [-73.3788487525308, 44.6412694822876], [-73.3855456266152, 44.6374028965801], [-73.3870527812515, 44.6359117298729], [-73.3859400050517, 44.630908885661], [-73.3864803812414, 44.6268838404652], [-73.3873221021289, 44.6237357636778], [-73.3893286764466, 44.6210275856008], [-73.390190053494, 44.618942051374], [-73.3892966828208, 44.6167774955149], [-73.3828731624611, 44.6121947046136], [-73.3802185132457, 44.6042537371286], [-73.3767805030951, 44.5995502612601], [-73.3763098881515, 44.5975452367459], [-73.3767327835676, 44.5954893472181], [-73.3781174296297, 44.5936634653881], [-73.3808230691039, 44.5915592968554], [-73.3817148465429, 44.5896095607195], [-73.3759314914767, 44.5826860968846], [-73.3752169198621, 44.5806406361862], [-73.3751942021715, 44.5777331370919], [-73.3745721677501, 44.575689841186], [-73.3620430300072, 44.5644631563409], [-73.3595459555873, 44.5615348789512], [-73.3542472331365, 44.5572792559968], [-73.3393922908932, 44.5483930330401], [-73.3390435910788, 44.5464588455683], [-73.3393756526238, 44.5448798991577], [-73.3380368555229, 44.5403991423092], [-73.3321585357475, 44.5308129826457], [-73.3276059523952, 44.5270268178735], [-73.3197783837781, 44.5235788221437], [-73.3194122739163, 44.5220319349288], [-73.3203714220553, 44.517271660202], [-73.3194172044425, 44.5136337539095], [-73.3184922303643, 44.5122022820392], [-73.3112917814088, 44.5050407211159], [-73.3079015636511, 44.4996687913684], [-73.3047511303757, 44.4915735475205], [-73.3034603765413, 44.4844633565038], [-73.2996349686966, 44.4774571311404], [-73.2982170648252, 44.4656229398875], [-73.2997002595546, 44.4578200918717], [-73.2995950289846, 44.4546854057641], [-73.294010053609, 44.443818052048], [-73.2933061905992, 44.4405416304438], [-73.2934009162084, 44.437507324727], [-73.2945027430826, 44.4360227538397], [-73.2941725718884, 44.4336986729073], [-73.2959995025516, 44.4287435027146], [-73.298167259574, 44.425204245509], [-73.3064850489449, 44.4152689020409], [-73.3121699498641, 44.4059400809525], [-73.3146714977825, 44.4006395160007], [-73.3163337236329, 44.3945241312868], [-73.316961478363, 44.3896283655008], [-73.3180538032696, 44.3876938237363], [-73.3229250481949, 44.3821293855501], [-73.3333285977636, 44.3737491133127], [-73.3340832531199, 44.3727456371502], [-73.3349325074226, 44.3694652798042], [-73.3354281597946, 44.3599463448837], [-73.3347018084823, 44.3558974964973], [-73.3271820878828, 44.3433591646832], [-73.3244404818691, 44.3362682566336], [-73.3240555963129, 44.3332203229827], [-73.3245583396447, 44.3168300523314], [-73.323725411093, 44.3088309076731], [-73.3218566036389, 44.3004908242626], [-73.3193931956368, 44.2929094136248], [-73.311265830725, 44.277883115773], [-73.3112127530553, 44.2709842667707], [-73.3132814917209, 44.2641477203045], [-73.3171214216438, 44.263005241903], [-73.3167474303953, 44.2565081744144], [-73.3172954498146, 44.2533832130267], [-73.3190478025902, 44.2502937173213], [-73.3224799745459, 44.2487416980879], [-73.323068909914, 44.2479039833688], [-73.3231777538876, 44.2450701471015], [-73.3237199228456, 44.2441680568258], [-73.3246538005038, 44.2435250313992], [-73.3303801850583, 44.2443203501978], [-73.3364018396614, 44.23978919597], [-73.3433793735205, 44.2381980217317], [-73.3435646864211, 44.2372282718889], [-73.3426364577208, 44.2353424587218], [-73.3428349450358, 44.2344535208989], [-73.3495127701307, 44.2309138272818], [-73.3504783761738, 44.2299004600806], [-73.3513841444668, 44.2259887710569], [-73.3553754959026, 44.2231653099666], [-73.3556600963216, 44.2200637194507], [-73.3562292186618, 44.2189641725381], [-73.3589017388072, 44.2154828533452], [-73.3622254326189, 44.2124689593555], [-73.3618498892921, 44.209429838002], [-73.3622645105274, 44.2085267219021], [-73.370863736381, 44.2045344822333], [-73.3748048479842, 44.2002512048739], [-73.3778801290377, 44.1995751207924], [-73.3819365151155, 44.1977420978739], [-73.3833920766215, 44.195944372939], [-73.3837600486797, 44.1940406596855], [-73.384585164311, 44.1932054729869], [-73.3888915551883, 44.1926273704884], [-73.3906279266872, 44.1910758536144], [-73.3909097142476, 44.1881180894517], [-73.3898267578914, 44.1817645867311], [-73.390877455346, 44.1793579206083], [-73.3919109396608, 44.1784363646098], [-73.394657578323, 44.1773852958609], [-73.3971754434204, 44.1738466698008], [-73.3974952629568, 44.1709244918559], [-73.3960077396024, 44.1682389802768], [-73.3958105759441, 44.1662741312098], [-73.3988579294818, 44.1619229335399], [-73.4002922542759, 44.1543715731027], [-73.4009360760545, 44.152706005828], [-73.4024004570669, 44.1515469529973], [-73.4028776123636, 44.150490997689], [-73.4021485934928, 44.1480687479718], [-73.4030477704112, 44.1449926555314], [-73.4081290043694, 44.1399051915124], [-73.4119769563237, 44.1377891529062], [-73.4161398749938, 44.1323639548946], [-73.4141627470256, 44.1281679788914], [-73.4140529703604, 44.1240881695369], [-73.4120179051167, 44.1196387236466], [-73.4112281699746, 44.1137762093096], [-73.4115121997904, 44.1119612502342], [-73.4139370027104, 44.1078533479959], [-73.4152195711033, 44.1013532497555], [-73.4185791888643, 44.0966462663746], [-73.4297175238588, 44.0785947572059], [-73.430231764104, 44.0719486079279], [-73.4311255341156, 44.0677742896981], [-73.4379030597427, 44.0451340877265], [-73.4375023768941, 44.0434633542494], [-73.4367283249978, 44.0426426823082], [-73.4268967217955, 44.0367002548153], [-73.4250939198147, 44.0343891422017], [-73.4228864049063, 44.0325576474258], [-73.4153407880142, 44.0298788877791], [-73.4125129863184, 44.0283534836529], [-73.4103919169076, 44.0265145745807], [-73.4076495468646, 44.0211192917864], [-73.4059008445024, 44.0153506566177], [-73.4060091022876, 44.0114276142804], [-73.4088065268072, 44.0006889714893], [-73.4090636562414, 43.9960203260931], [-73.4104061454045, 43.9918615348156], [-73.4112005300293, 43.9862813742247], [-73.4125258418731, 43.9822207006782], [-73.4120480947366, 43.9776137922852], [-73.4070728917841, 43.9681987449705], [-73.4064471594588, 43.9595924556231], [-73.4057285000554, 43.9559359507986], [-73.4056504712783, 43.9480749284543], [-73.4085537871338, 43.9373200372419], [-73.4088636762512, 43.9345157828218], [-73.4085522170929, 43.9319001645904], [-73.4071260017242, 43.9281980632772], [-73.4020647592953, 43.9192496144137], [-73.3965745366937, 43.9039393469182], [-73.3958933645366, 43.9029843533366], [-73.3900592521315, 43.8994091977793], [-73.3875499001806, 43.8969969120461], [-73.3780410516368, 43.882915864355], [-73.3741518533129, 43.8762431903179], [-73.374345815465, 43.874319133975], [-73.37909093968, 43.8651942202674], [-73.3812493448153, 43.860029363867], [-73.3823085368864, 43.8560655097785], [-73.3820062868705, 43.8541246532236], [-73.3802536109326, 43.8519304547171], [-73.373631061971, 43.8475323662771], [-73.3728436305973, 43.8466485110374], [-73.3725890178228, 43.8453660039922], [-73.3737141871529, 43.8429776920845], [-73.3766616604548, 43.83944584773], [-73.3830963796663, 43.8364935700967], [-73.3881900866399, 43.8326665254507], [-73.3893014895959, 43.8312422009364], [-73.3922483117495, 43.8248370967833], [-73.3927977536011, 43.8227825000224], [-73.392522275774, 43.8213473674455], [-73.3910122202981, 43.8184178876992], [-73.3895626132923, 43.8170466182099], [-73.3856674409732, 43.8148133426567], [-73.3807252324768, 43.8108264327274], [-73.3781953070211, 43.8059382057587], [-73.3767949231933, 43.7991652833068], [-73.3709965610967, 43.7951397733929], [-73.3640602108543, 43.7912233813475], [-73.3581570901478, 43.786483003645], [-73.3575235289739, 43.7855654754572], [-73.3553663196341, 43.7779347894357], [-73.3510001032116, 43.7724430317191], [-73.350762170124, 43.7713952492849], [-73.3512675495107, 43.7698353810069], [-73.354648445764, 43.7645727255026], [-73.3646544443698, 43.7510389123113], [-73.3667761084331, 43.7470085818452], [-73.369543845582, 43.7437529268986], [-73.3704603734466, 43.73524857756], [-73.369584387709, 43.7289703016938], [-73.370452148958, 43.725065439717], [-73.3775640919552, 43.7178915616114], [-73.3832444933359, 43.7138219136037], [-73.3871358205219, 43.7100412108973], [-73.3892396511849, 43.7059917642691], [-73.3917399560634, 43.7035241082307], [-73.394204922179, 43.6984087705083], [-73.395471734688, 43.6969137440939], [-73.3978047042716, 43.6948126897599], [-73.4024752167257, 43.6928255541171], [-73.4048746213926, 43.6900135870259], [-73.4053747685589, 43.6885805001092], [-73.4034585729142, 43.684690360129], [-73.4044245292257, 43.6798961590674], [-73.4059959637551, 43.6757676998324], [-73.4073788930386, 43.6735444498103], [-73.4085454483065, 43.6687802050025], [-73.4116747485855, 43.6625655936943], [-73.4143668180838, 43.6587133870152], [-73.4151623765025, 43.6561680078873], [-73.4154401818473, 43.6527320979538], [-73.416931161224, 43.6502044443466], [-73.4192014373079, 43.6476615054288], [-73.4240819703713, 43.6455403744025], [-73.4260840946491, 43.6435242076301], [-73.4267654224768, 43.6420659664548], [-73.428508478731, 43.6365434558917], [-73.4280986649044, 43.6351516679467], [-73.419101536022, 43.624214095077], [-73.4178743721742, 43.6221438775362], [-73.4178725850589, 43.6209107860837], [-73.4238302334261, 43.6125021494409], [-73.4241913372273, 43.6112562219577], [-73.421913348958, 43.6058941230825], [-73.421988162063, 43.6028610607923], [-73.4276531559153, 43.5939892188571], [-73.4299083806451, 43.5912923431416], [-73.4313337027354, 43.5879261343674], [-73.430808825811, 43.5864336623906], [-73.4279428255231, 43.5835037911031], [-73.4209447883814, 43.5817324929117], [-73.4165349864408, 43.577367514057], [-73.4096076444214, 43.573643478819], [-73.4066977254453, 43.5715135020975], [-73.3993120253517, 43.5681958908627], [-73.3976372564056, 43.5676681017706], [-73.3961964741993, 43.5678918258474], [-73.3957129530525, 43.5691359333666], [-73.3918196028762, 43.5699728485422], [-73.3912516636428, 43.5708386594255], [-73.3918634288502, 43.5729174956555], [-73.390994697742, 43.5740313742557], [-73.3892304293997, 43.5747805704853], [-73.385075598476, 43.5749378349616], [-73.3839746897678, 43.575526007628], [-73.3829261520183, 43.5790218480073], [-73.3832459175152, 43.5803235997755], [-73.3855848166781, 43.5831749721405], [-73.3823939673723, 43.586181532204], [-73.383155293746, 43.587065745266], [-73.3846165888152, 43.5873119604651], [-73.3868406833176, 43.5886213602391], [-73.3874084417935, 43.5898095637428], [-73.3872188325649, 43.5907606224273], [-73.3862928368583, 43.5913960628456], [-73.3822725108055, 43.5915909765945], [-73.3816585996606, 43.5925371989919], [-73.3831548145883, 43.5957721550641], [-73.3839303721018, 43.5964772252455], [-73.383325574964, 43.5975484966596], [-73.3822798392257, 43.598263136196], [-73.3791396856719, 43.5980119037175], [-73.3772695086205, 43.5985708201521], [-73.3778027240092, 43.600396501867], [-73.3746870770491, 43.6026210815075], [-73.3728326582848, 43.6048907674597], [-73.3738264642265, 43.6074439930649], [-73.376768033579, 43.6093412496889], [-73.3753698496787, 43.6096633925525], [-73.3748698965662, 43.6106375056274], [-73.3764859069788, 43.6125692076565], [-73.3746378175745, 43.6150009748741], [-73.3700766003366, 43.6192759627965], [-73.3724867495787, 43.6220387434587], [-73.3718915650847, 43.6245779029679], [-73.3691773790579, 43.6249081994559], [-73.3661328989026, 43.6233705737099], [-73.359279043441, 43.6246140924003], [-73.3574231070425, 43.6257487148156], [-73.353839856963, 43.6259671623498], [-73.3518664645225, 43.6227695985752], [-73.3508228033357, 43.6217908859258], [-73.349269842483, 43.6215253000437], [-73.3478313673058, 43.6223963625852], [-73.3466803657249, 43.6246667890336], [-73.3448825003099, 43.6260986134692], [-73.3432801628003, 43.6265082794489], [-73.3413835105265, 43.6245898790056], [-73.3384335689443, 43.6250417909623], [-73.3379638713721, 43.6259623241001], [-73.3368134965959, 43.6266035956514], [-73.3351327201333, 43.6266419896443], [-73.3343755461023, 43.6274143848105], [-73.3330790701205, 43.6276290582811], [-73.3309597580215, 43.6259415372746], [-73.3293948767248, 43.6257746867323], [-73.3264518531417, 43.6263082363347], [-73.3237493560757, 43.6277543658057], [-73.3205059068992, 43.6273375548572], [-73.3181469441163, 43.6285362643688], [-73.3178550266522, 43.6275050644406], [-73.3166879841929, 43.6267411416896], [-73.3137659779557, 43.6258961955884], [-73.3121772541137, 43.6243782620255], [-73.3106689090118, 43.6240136361797], [-73.3074852496405, 43.6278750014497], [-73.3060833249739, 43.6280883134382], [-73.302653315667, 43.6257678366509], [-73.3018296724533, 43.6243667950007], [-73.3031894603684, 43.6203518997416], [-73.3006393253646, 43.6181205818375], [-73.3016474002152, 43.6142675675786], [-73.3007622095431, 43.6136104129115], [-73.3023838542748, 43.6119734075252], [-73.3027735868815, 43.6110616803639], [-73.302419712197, 43.6100956785165], [-73.3001935709609, 43.6111328741306], [-73.298266537196, 43.6099330386873], [-73.2925098911315, 43.6035286928509], [-73.2928624505913, 43.6016747802467], [-73.2919748448878, 43.5998961605223], [-73.2910168229022, 43.5992331324916], [-73.2927238022882, 43.597595759699], [-73.2925880852066, 43.5946913240229], [-73.2932259386569, 43.5927823242583], [-73.2955875886867, 43.589119675072], [-73.2971248348707, 43.5876095168721], [-73.292948395512, 43.5855557674975], [-73.2924251966758, 43.5846368988978], [-73.2929722738187, 43.5836583139355], [-73.2955784916791, 43.5819983619141], [-73.2973325176044, 43.5793651843621], [-73.296218966267, 43.5788959002771], [-73.2957937664627, 43.5780095766038], [-73.2919099311695, 43.5787395129335], [-73.2910370383185, 43.5780560907975], [-73.2897939078037, 43.5778784581317], [-73.2851546091323, 43.5794630622615], [-73.2832386595527, 43.5780901634091], [-73.2818403406205, 43.5781456394191], [-73.28119587671, 43.5772615705786], [-73.28108265389, 43.5741247346815], [-73.2771716832045, 43.5746356351454], [-73.2753910833143, 43.5731140689996], [-73.2715383586481, 43.5728817204311], [-73.2706134938359, 43.5722723892539], [-73.2680238204709, 43.5722844156474], [-73.267579385032, 43.5714360085467], [-73.2681965030777, 43.5692446522864], [-73.2669444875644, 43.5690496387099], [-73.2658834048636, 43.5696003147331], [-73.2646396559623, 43.5692954999267], [-73.2640935052006, 43.5675241794661], [-73.2604061695102, 43.5664146545049], [-73.2587363291355, 43.5650352034957], [-73.2580016047102, 43.5642984048827], [-73.2585148966888, 43.5634480176369], [-73.2573311889509, 43.5630715275207], [-73.2554462233854, 43.5605890438635], [-73.2554751212916, 43.5596824636642], [-73.2534817772013, 43.5582114621259], [-73.2526304503097, 43.5566860182832], [-73.2528055912432, 43.5556830658064], [-73.2514128687875, 43.5555320121421], [-73.249522772551, 43.5542042760341], [-73.2487945692999, 43.5515654840288], [-73.2506369459394, 43.5502231591502], [-73.2491912617481, 43.5486231904059], [-73.2501102386621, 43.547976390167], [-73.2494351655021, 43.5471347321857], [-73.2498362727602, 43.5462203102026], [-73.2490523681541, 43.545521577799], [-73.2506254125836, 43.5440387117218], [-73.2500800061739, 43.5431133971428], [-73.2475283565333, 43.5428574717733], [-73.2457267849512, 43.5416956077484], [-73.2465064709904, 43.5400540627146], [-73.2447709022348, 43.5392400876138], [-73.2434711795252, 43.5355789607721], [-73.2414878879136, 43.5328095638098], [-73.2433000337073, 43.53043874256], [-73.2424757422837, 43.5297627278484], [-73.2422749610146, 43.5288649281179], [-73.2468796297232, 43.5257682306795], [-73.247549595682, 43.5230835514371], [-73.2467078389453, 43.5212779717249], [-73.247510860889, 43.5194455317238], [-73.2467657271284, 43.5186305043807], [-73.2469317197264, 43.5175781088343], [-73.2481021866855, 43.5159593754165], [-73.2467811085683, 43.5155853811796], [-73.2509165969094, 43.4041316897525], [-73.2533827778105, 43.3502973803428], [-73.2565657892155, 43.2577107660559], [-73.258276330093, 43.2385934011606], [-73.2597444777447, 43.2001395174728], [-73.2628139731915, 43.1528399834613], [-73.2637935054731, 43.1269304440941], [-73.2708231016839, 43.0158914272916], [-73.2755922312849, 42.9160630311795], [-73.2782061634115, 42.8373995433421], [-73.2786791428461, 42.8334810846379], [-73.2842027400396, 42.8349425807542], [-73.2853094280175, 42.8340722431735], [-73.2869702173146, 42.8202499431501], [-73.2857036577541, 42.8166436951146], [-73.2835196571861, 42.8140586922105], [-73.2865658023184, 42.8092694255536], [-73.2863151774951, 42.8080931389785], [-73.2908895086431, 42.8019640951329], [-73.2761934388676, 42.7459893885225], [-72.8463593793678, 42.7373779259562], [-72.4584462339661, 42.7269687026272], [-72.4590569846022, 42.7298589396517], [-72.4624756491228, 42.7345331713354], [-72.4631751395022, 42.7363929870269], [-72.4667145464303, 42.7394288113133], [-72.4681635171229, 42.742192184802], [-72.4700178744182, 42.7436784111608], [-72.4712542211453, 42.744013791487], [-72.4736110533207, 42.7466860347681], [-72.4746742458574, 42.7513098987612], [-72.4751091024764, 42.7561938678309], [-72.4768478085698, 42.7604626223587], [-72.4793461108963, 42.7631775288393], [-72.4833449416252, 42.7647169243539], [-72.4851237885547, 42.7659483967385], [-72.4869665298438, 42.7687140906182], [-72.4904224576598, 42.7723556319116], [-72.4943158951072, 42.7733291167724], [-72.4969838708501, 42.7734639796245], [-72.4986913236467, 42.7718207564941], [-72.4993883298173, 42.7689943487985], [-72.5011812454374, 42.7673215596328], [-72.5042300916308, 42.7660513699462], [-72.5057374186025, 42.7660180862664], [-72.5080444460535, 42.7643944938283], [-72.5092083257098, 42.7645640072697], [-72.5111979626058, 42.7638331217908], [-72.5139062475164, 42.7644944872165], [-72.5153935376196, 42.7656216393516], [-72.5165293230165, 42.768421518932], [-72.5162434544129, 42.7699825380666], [-72.514486849951, 42.7713979145909], [-72.5147760912193, 42.771984280022], [-72.5138346576709, 42.7733025836849], [-72.5103336522502, 42.7746000756574], [-72.5087944490977, 42.776207090918], [-72.508373594432, 42.778025739558], [-72.5089605871081, 42.7800645062352], [-72.5123308329309, 42.7844630952117], [-72.5152949851261, 42.7871552806283], [-72.5417215892496, 42.8074643516755], [-72.54263144799, 42.8117248062333], [-72.54235087492, 42.8158980163892], [-72.5454951467806, 42.8219337067888], [-72.5466736636339, 42.8260136995455], [-72.5465306702403, 42.8294011517502], [-72.5472724208974, 42.8354664467537], [-72.5467463885159, 42.8373176683214], [-72.5471467156823, 42.840020194516], [-72.5490868262631, 42.8428388258569], [-72.5525408054628, 42.845833086684], [-72.5547564211319, 42.850100012039], [-72.5561911627861, 42.8519895657318], [-72.5566630478732, 42.8519736696098], [-72.5572369365386, 42.8539071140354], [-72.5541278623074, 42.8608049054294], [-72.5544030146102, 42.8636752519824], [-72.5553958725457, 42.8667455464038], [-72.5551904054135, 42.8749944623227], [-72.5523937509452, 42.8834520762248], [-72.5525445672364, 42.8851898429678], [-72.5506038939864, 42.8862486610257], [-72.5472868359975, 42.8867517304138], [-72.540563962878, 42.8894498652577], [-72.5318730065086, 42.8965179993763], [-72.5309869921333, 42.8990854253011], [-72.5315473989148, 42.9072328612408], [-72.5305163337259, 42.9107700090013], [-72.5294605165819, 42.9124738139433], [-72.5254710747015, 42.914180190312], [-72.524570529386, 42.9153881782832], [-72.524290125535, 42.9186611653619], [-72.5270650464828, 42.9281727050446], [-72.5263470085853, 42.935484859792], [-72.5271971905328, 42.9422949654644], [-72.5281764793755, 42.9450883784223], [-72.5289828564037, 42.9458437963821], [-72.5328727605876, 42.9473056443548], [-72.5340243871115, 42.9484574593322], [-72.5345641057063, 42.9498625829769], [-72.5339480603911, 42.9522738332748], [-72.5322729304364, 42.9547952957479], [-72.5249899624702, 42.9586083335337], [-72.5184906093334, 42.9631055538084], [-72.5066347922614, 42.9644412923135], [-72.5049840951363, 42.9656253016771], [-72.5027757082448, 42.9662009558727], [-72.4924077724088, 42.9676359952023], [-72.4881361295429, 42.970451864387], [-72.4872357574499, 42.9716226391548], [-72.4818907317412, 42.9738555495985], [-72.4793123025154, 42.9734562387756], [-72.4759033757509, 42.9714786745756], [-72.4733609642625, 42.9723027730327], [-72.4696414028689, 42.9760899156861], [-72.4658545364052, 42.978380629168], [-72.4620147393365, 42.9825470915631], [-72.4620139439556, 42.9838391260339], [-72.4645313291939, 42.9866898246363], [-72.4655554005739, 42.9895691936829], [-72.4646855052808, 42.993672319586], [-72.4630532363422, 42.9968633084388], [-72.4597249364978, 43.0004736981478], [-72.4587957877337, 43.0009286943354], [-72.4559115959247, 43.0012342223268], [-72.45197397273, 43.0001281158082], [-72.4499667084508, 43.0002499507122], [-72.4464190553502, 43.0024746725285], [-72.4440791061695, 43.0052756352504], [-72.4434702410053, 43.0071675148791], [-72.4432085469479, 43.0089722459838], [-72.4437779083004, 43.0099425606581], [-72.4513683326741, 43.0147850406072], [-72.458059300954, 43.0182530161065], [-72.4628560387435, 43.0257671952326], [-72.463227647961, 43.0284884608218], [-72.4612636552459, 43.0348499880841], [-72.4608249284837, 43.0418490585124], [-72.4625282449126, 43.0442551647989], [-72.4653644976198, 43.0460781013839], [-72.4664353993054, 43.0473377644765], [-72.4680161458329, 43.0520182173405], [-72.4670731302426, 43.054235976568], [-72.4640548432658, 43.0573580355103], [-72.4554887729256, 43.0626305708576], [-72.4529565543521, 43.0660412970345], [-72.4503964282393, 43.0685350378018], [-72.4446559967277, 43.0715810118659], [-72.4396034723477, 43.0765115656642], [-72.4356836548242, 43.0811775246987], [-72.4335677772926, 43.0855788575467], [-72.4382096282161, 43.0899565410132], [-72.4390646488724, 43.0917540933711], [-72.4389762381367, 43.0948235228189], [-72.4401080258984, 43.0965664821161], [-72.4424253739655, 43.0987187074716], [-72.443517973213, 43.1022516805514], [-72.4429077081685, 43.1041981642437], [-72.4409622998367, 43.1065823430456], [-72.4368450540398, 43.1082712842428], [-72.4341197175093, 43.11019627669], [-72.4326265976106, 43.114433647612], [-72.4327060181597, 43.1184284366097], [-72.4338541609282, 43.1211969248268], [-72.437075548023, 43.124689298693], [-72.4405266144784, 43.1271817105213], [-72.442179028543, 43.1291861346467], [-72.4422103507532, 43.1319446942209], [-72.4415840027464, 43.1323576388738], [-72.4412529066978, 43.1316989120966], [-72.4408820718088, 43.1318583204424], [-72.4413942012036, 43.1326483844929], [-72.4407840433527, 43.1328282815416], [-72.4403069652453, 43.1342944835151], [-72.4405794927399, 43.1356541376543], [-72.4401271353436, 43.1361957970912], [-72.4431274182866, 43.1375728613806], [-72.4472047570413, 43.1369222013921], [-72.4521713318779, 43.1385874286681], [-72.4551872553609, 43.1429807958666], [-72.4573928968397, 43.1474768485513], [-72.4566205932384, 43.1494085660007], [-72.4530977203873, 43.1520035001372], [-72.452132848429, 43.1534144568103], [-72.4524783733152, 43.1585981530772], [-72.4523400763837, 43.1604573659105], [-72.4516063874214, 43.1621316193923], [-72.4529450927126, 43.1719393623051], [-72.4525098131895, 43.1734111150178], [-72.4510002087901, 43.1748490140707], [-72.445197908448, 43.177936788468], [-72.4439787677027, 43.179538200221], [-72.4442119875636, 43.1826343888885], [-72.4490057953074, 43.1882799479407], [-72.4501809944707, 43.1909976621196], [-72.4504278331102, 43.1929086995616], [-72.4456003306573, 43.1956990429553], [-72.4390638160965, 43.20101482372], [-72.4388472713891, 43.2083951183797], [-72.4411105446538, 43.2139214129249], [-72.4411928601824, 43.2172706334912], [-72.4406311135742, 43.2202139118869], [-72.4390211568596, 43.2237986647461], [-72.4348131034541, 43.2300511355746], [-72.4342672968169, 43.2317432762062], [-72.4346886876305, 43.2331259593688], [-72.4359861878182, 43.2343636709237], [-72.4377334202923, 43.2379519794112], [-72.4394661223908, 43.2439873777255], [-72.4394639559228, 43.2461754428329], [-72.4384124662787, 43.2492719102618], [-72.4389080852814, 43.2518845668813], [-72.4370012166186, 43.2560580537769], [-72.4357065365848, 43.2577257179394], [-72.4336355942079, 43.2590096647747], [-72.4249750000892, 43.2617632419636], [-72.4218351705017, 43.2632660832163], [-72.4212083395567, 43.2638565047729], [-72.420443512719, 43.2662673585185], [-72.4162035371647, 43.2702439347363], [-72.4123675271159, 43.2770816584317], [-72.4092962944109, 43.2813467240344], [-72.4080388577263, 43.284127141735], [-72.4049496313037, 43.2923236815601], [-72.4047610274629, 43.2943389264551], [-72.4026791433683, 43.3009872748162], [-72.4028983480567, 43.3024120123066], [-72.3997722758434, 43.3060147988676], [-72.3991503572753, 43.3081594482452], [-72.3984075348907, 43.3085652015953], [-72.3978947614967, 43.3099688604218], [-72.3954470821079, 43.312937625596], [-72.3956046931563, 43.3141915619095], [-72.3973269522217, 43.3169594041518], [-72.3988167407433, 43.318235947198], [-72.4024194856706, 43.3200834452022], [-72.4077422981105, 43.3262597840587], [-72.4097254126515, 43.3291630224737], [-72.4105414007683, 43.3312826580534], [-72.4088233052636, 43.334788202107], [-72.4007367972893, 43.3460441334999], [-72.3982933718493, 43.348485289565], [-72.3947305708704, 43.3506742325329], [-72.3900423100823, 43.3557337455009], [-72.3900169556049, 43.3562486834534], [-72.3909083503147, 43.3574106080224], [-72.3921436972338, 43.3578850651407], [-72.3998316445253, 43.3573611630028], [-72.4037953210092, 43.3578988796117], [-72.4088370010648, 43.3611560585049], [-72.4134091664169, 43.3629385262988], [-72.4150019175213, 43.3652996651287], [-72.4145588642795, 43.3691758952488], [-72.4161729686744, 43.3767889731448], [-72.4148024362334, 43.3814195342914], [-72.4136346242101, 43.383331414945], [-72.4100494868075, 43.3869323721683], [-72.4049433021937, 43.3903772318683], [-72.4037975793155, 43.392066067862], [-72.4035686809547, 43.396307415117], [-72.4021792966762, 43.3991227044091], [-72.4002717215425, 43.4083755232265], [-72.3998797939723, 43.4158294924231], [-72.3960633931202, 43.4285015879471], [-72.395958778684, 43.4375896615707], [-72.3935434990692, 43.4450852755936], [-72.391303902963, 43.4485943216698], [-72.3903444030397, 43.4518379411486], [-72.3915615244909, 43.4567371358098], [-72.3918345922513, 43.4624927790281], [-72.392318512605, 43.4630450019371], [-72.3929773958366, 43.4664154436299], [-72.3904050019507, 43.4695244085522], [-72.388335623562, 43.4708557446653], [-72.386855557068, 43.4725812234715], [-72.3851068626655, 43.4733472715003], [-72.3835554422238, 43.4750500523444], [-72.3820278336604, 43.4786356771217], [-72.3801901091281, 43.4905589812407], [-72.3805374765931, 43.492708612505], [-72.3831428114813, 43.4965645553962], [-72.3836189299824, 43.4983820778869], [-72.3850335291279, 43.5006816497779], [-72.3969140457987, 43.5084474411063], [-72.3991199157708, 43.5121440519054], [-72.3987725866477, 43.5139509649487], [-72.3963420708526, 43.5192238205126], [-72.3959570789242, 43.521857520189], [-72.3962572023423, 43.5233492552778], [-72.394627510988, 43.5272467209614], [-72.3934157286154, 43.5278610846552], [-72.3909120479676, 43.5275796040011], [-72.388007633473, 43.5295450395361], [-72.3839063902548, 43.5346492687216], [-72.3807253654133, 43.5403894182644], [-72.3806642403398, 43.5430243840711], [-72.3816855650087, 43.5459993595653], [-72.3810700456412, 43.5512339401112], [-72.3831055486314, 43.5634663234362], [-72.3830389613607, 43.5640378137741], [-72.3813119775691, 43.5651103828454], [-72.3812435618037, 43.5657852015007], [-72.3806280033939, 43.5650232628616], [-72.3800590854449, 43.5655295100379], [-72.3797608424756, 43.5672349594769], [-72.3806367030182, 43.5699581132193], [-72.3803479217857, 43.5736341420241], [-72.3791511392939, 43.5751851799795], [-72.3718024554329, 43.5804835655182], [-72.3652734880746, 43.5832632733306], [-72.3582509749447, 43.585195194522], [-72.3566363241735, 43.5865479935086], [-72.3548112891289, 43.5865809738901], [-72.3496881718106, 43.5879409580389], [-72.346720892753, 43.5904137003205], [-72.3415087924764, 43.5929280079852], [-72.3408060720934, 43.5938409802566], [-72.3332015248312, 43.599244970329], [-72.3293804637086, 43.6004598476707], [-72.3283254195165, 43.6013037190856], [-72.3279425940736, 43.6033839628761], [-72.3283917373451, 43.6070363742808], [-72.3301491431944, 43.6087679710122], [-72.3329021839464, 43.6099812027407], [-72.3334979408569, 43.6108632547323], [-72.3349618056085, 43.6149795711358], [-72.3348611558652, 43.618756807282], [-72.3324792948435, 43.6250583314519], [-72.3291629811285, 43.6268901313131], [-72.3294758535919, 43.6281168699373], [-72.3282264745101, 43.6291094997408], [-72.327455591874, 43.6306741196639], [-72.3274298128108, 43.631108731816], [-72.3288825237569, 43.6318878656011], [-72.3297005374197, 43.6332409179235], [-72.3290602226333, 43.63551599379], [-72.3271164715943, 43.6368849761665], [-72.3227963059416, 43.6387315372476], [-72.3159931316871, 43.6407103241278], [-72.3143971866844, 43.6421999870409], [-72.3138190570827, 43.6451521169789], [-72.3150752690126, 43.6499964890657], [-72.314512223768, 43.6542773375474], [-72.3134628818235, 43.6573521844323], [-72.3125357695958, 43.6585643325593], [-72.3107634025415, 43.6597185501816], [-72.3086348681575, 43.6627562751859], [-72.3067439401912, 43.6644376756066], [-72.3055395090296, 43.6671734834755], [-72.3034536850835, 43.6680564914459], [-72.30308686629, 43.6688667380144], [-72.3032699576556, 43.6706284102411], [-72.3027389620418, 43.6738185300804], [-72.3024251613495, 43.6744430898294], [-72.3016334522506, 43.6744953622503], [-72.3015112543493, 43.6752632744398], [-72.3028110268015, 43.676577471997], [-72.3028016812162, 43.6796963006497], [-72.3059749829393, 43.6832573811751], [-72.3054500580057, 43.6866886462619], [-72.3054945147048, 43.6907417457817], [-72.3049272419134, 43.692588806245], [-72.3051255209525, 43.6953683854718], [-72.3018295380192, 43.6995779292925], [-72.2998999511274, 43.7038231693723], [-72.2996693474026, 43.7063832832274], [-72.295081282663, 43.7088287530691], [-72.2922768142312, 43.7110247056586], [-72.2915197246507, 43.7126532603575], [-72.2868788494286, 43.7169788880684], [-72.2846984696216, 43.7207322238578], [-72.2818050999741, 43.7236854377409], [-72.2774991583812, 43.725662231605], [-72.2755309802786, 43.7271914669172], [-72.273449583721, 43.7312022833392], [-72.2709899138853, 43.7339453705256], [-72.2690176546504, 43.734323299509], [-72.2644636549575, 43.7338858442954], [-72.2510186320587, 43.7399492555002], [-72.2457884001949, 43.7431766199441], [-72.2387680742007, 43.7445666012328], [-72.2354028536607, 43.7458547703189], [-72.2306328651007, 43.7491174263462], [-72.2305564657886, 43.7499567343797], [-72.2261438895097, 43.7559373273202], [-72.2240879406838, 43.7578248513297], [-72.2204532879276, 43.7632781278096], [-72.2180693285163, 43.7659752420954], [-72.2106078506614, 43.7680693932173], [-72.2054726140268, 43.7709909182502], [-72.2054538841298, 43.776781214614], [-72.2040597552886, 43.7795823740098], [-72.205850647662, 43.7817962777605], [-72.2055227348033, 43.7849746142606], [-72.2033846716224, 43.7869546100881], [-72.1986653898026, 43.7890169853652], [-72.1964086431686, 43.7908059926415], [-72.1939920140782, 43.7941216523629], [-72.191252838206, 43.8002740804807], [-72.185188502706, 43.804483649939], [-72.1834905847503, 43.8086853587566], [-72.1834820647157, 43.8116167172903], [-72.1869225266054, 43.8163082632256], [-72.1887294377971, 43.8201922407941], [-72.1889052451477, 43.8215263231098], [-72.1885671065721, 43.8232981437653], [-72.1836027808715, 43.830818825059], [-72.1825619277921, 43.8340248845681], [-72.1833319008483, 43.8408287745493], [-72.1831159747648, 43.8445270119235], [-72.1879291382198, 43.8538097437486], [-72.1882461018774, 43.8553287166338], [-72.1859027233191, 43.8597665410067], [-72.1849007872945, 43.864106858075], [-72.1839532216161, 43.865122191247], [-72.1818628539093, 43.8659499208705], [-72.1746466633871, 43.866623179057], [-72.1682350621365, 43.8690962466928], [-72.1687998263378, 43.8711280210965], [-72.1725761068482, 43.8769111443535], [-72.173700609226, 43.8799547926739], [-72.1731703699788, 43.8835347216017], [-72.1724296565074, 43.8848830212082], [-72.1701075385296, 43.8861040877745], [-72.1633870660615, 43.8864898680393], [-72.1601167317493, 43.8875215349677], [-72.1588631685926, 43.8923613645123], [-72.1571999032467, 43.8952914153837], [-72.1538704684788, 43.8994190374336], [-72.1505116987729, 43.9022907368874], [-72.1459766508677, 43.9048793255079], [-72.1366743423234, 43.9089267584511], [-72.1354896713397, 43.9097629891561], [-72.1330977078105, 43.9130743094822], [-72.1242824282363, 43.9169064587467], [-72.1199584315142, 43.9201201365404], [-72.1181315092776, 43.923160933706], [-72.1178253062372, 43.9266038919621], [-72.1182728694994, 43.9281026833498], [-72.1168634914144, 43.9336768229432], [-72.1176607312727, 43.9384242214424], [-72.1187286239357, 43.9405645274745], [-72.11905395194, 43.9425183229033], [-72.1184563713936, 43.9464217434607], [-72.1167321767486, 43.9473923276558], [-72.1105412266876, 43.9477999895497], [-72.1058180106917, 43.9499300046718], [-72.0995283444816, 43.9570104496448], [-72.099213788493, 43.9591173945734], [-72.1012250033273, 43.96087417589], [-72.1009557452671, 43.9629211612938], [-72.0981865141214, 43.9641229856711], [-72.091220459725, 43.9655180714062], [-72.0918111904285, 43.9665263213932], [-72.0930145920075, 43.9671259839386], [-72.1053713102822, 43.970104316169], [-72.107216796138, 43.9696343795914], [-72.1106708172264, 43.967086251674], [-72.1124965750637, 43.967004436931], [-72.1141132071722, 43.9675562992925], [-72.114814887822, 43.969300055032], [-72.1128322469083, 43.9756812941249], [-72.1125997658979, 43.9780263331281], [-72.1131438077197, 43.9810209424215], [-72.1119460260812, 43.9839042524965], [-72.1119288374741, 43.9859103880248], [-72.1139501947475, 43.9895309742154], [-72.1168416120328, 43.9919101093973], [-72.116889386717, 43.9943861433027], [-72.1127955059061, 43.9966179903737], [-72.1092123931045, 44.0003682474462], [-72.104117837656, 44.0024459615084], [-72.1037827545182, 44.0045138610942], [-72.1060355705651, 44.0118232446535], [-72.1035836779219, 44.0146716149928], [-72.0998746971182, 44.0155424163859], [-72.0969513232039, 44.0151987751925], [-72.0933392054556, 44.0130088269436], [-72.0929628725024, 44.0113643151886], [-72.0933653260873, 44.0097882864705], [-72.0928420305729, 44.0091195966199], [-72.0917551072446, 44.0091588292938], [-72.0904894416158, 44.009983400214], [-72.0903355767456, 44.0107597465011], [-72.0909127810204, 44.0119836832784], [-72.094516946581, 44.0150803587358], [-72.0955218901076, 44.0168243780512], [-72.0959278212689, 44.0184815811832], [-72.0955211087664, 44.0219111951337], [-72.0949793978671, 44.0221146604892], [-72.0943598722965, 44.0234311701951], [-72.0918655584223, 44.0244194173446], [-72.0892807554929, 44.0235791698421], [-72.0857450845613, 44.0212332861479], [-72.0840123734831, 44.0212686618133], [-72.0826671396097, 44.0219156408184], [-72.0819076236864, 44.0232045440147], [-72.0825610331709, 44.0264605255683], [-72.0818759255152, 44.0282588664428], [-72.0802995097125, 44.0294854809907], [-72.0768621059955, 44.0304234912981], [-72.0753063651628, 44.0315974628998], [-72.0748903874273, 44.0326357058177], [-72.0794434650453, 44.0393353577121], [-72.0795952128012, 44.0407599214137], [-72.0788544817949, 44.0428003182119], [-72.0764453211152, 44.0449961812017], [-72.0696566488726, 44.0478622022963], [-72.0664907726728, 44.0490765922494], [-72.0620172166435, 44.0496161008847], [-72.0619669518949, 44.0509163388213], [-72.0629977025133, 44.0519874325884], [-72.0670570811843, 44.0529096517173], [-72.0690784769222, 44.054185322873], [-72.0693169651386, 44.0548738316208], [-72.0682710292234, 44.0573820915402], [-72.0664744840236, 44.0583402838337], [-72.06048878255, 44.05773780566], [-72.0574785958249, 44.0584465569187], [-72.0559519148572, 44.0600242062874], [-72.0541524297475, 44.0638481003532], [-72.0484847256147, 44.069532008511], [-72.048403779748, 44.0704097394448], [-72.0492731399587, 44.0722795232007], [-72.0524853820658, 44.0744501957791], [-72.0531750672795, 44.0760661645064], [-72.0526950804336, 44.0767578350398], [-72.0435204808308, 44.0794451572056], [-72.0415030242232, 44.0792198147536], [-72.0391044316298, 44.0770312410866], [-72.0373480089156, 44.0767086886222], [-72.0337474753956, 44.077253588971], [-72.0316461437481, 44.0787809500838], [-72.0317473268015, 44.0800880887073], [-72.0329229128157, 44.0812954932487], [-72.0417923838119, 44.0845312118234], [-72.0444690543573, 44.0861038543269], [-72.0452798616536, 44.0872855796321], [-72.0448311790255, 44.0883491328153], [-72.0437937124438, 44.0888928307666], [-72.0372512043651, 44.0887764281801], [-72.0353411344043, 44.0892477492588], [-72.0333517916428, 44.0904750821344], [-72.0321350742573, 44.0923542739369], [-72.0307016570395, 44.0979385181142], [-72.0312660218439, 44.1002632116427], [-72.0326454661177, 44.1015004312886], [-72.0366480986071, 44.1030884159596], [-72.0390328970967, 44.1034462734025], [-72.0416438303882, 44.1018107580567], [-72.0425406697444, 44.0998893292095], [-72.0428611631377, 44.0974230630582], [-72.0434884288727, 44.0967306767865], [-72.0451877465982, 44.0962428094554], [-72.0484134894206, 44.0968385405381], [-72.0500698686714, 44.0978252730134], [-72.0523783061922, 44.1003743382321], [-72.0529913032317, 44.1018637303883], [-72.0528497037134, 44.1040962701518], [-72.0555087274653, 44.1108641556087], [-72.0550649279266, 44.112259415272], [-72.0534028994899, 44.1144966412468], [-72.0532885114799, 44.1189517537254], [-72.0520199047296, 44.1196347471703], [-72.0493525864671, 44.1197459393411], [-72.0484231494164, 44.1202608512807], [-72.0477631893855, 44.1220362868739], [-72.0454652157178, 44.124736535607], [-72.0406204600126, 44.1261405997849], [-72.0374226270765, 44.1257932567476], [-72.0364700301404, 44.1269275385616], [-72.0357978936475, 44.1291812044036], [-72.0334683916289, 44.1309243786244], [-72.0332674386177, 44.1319232451983], [-72.038306813146, 44.1338057682746], [-72.0420375230992, 44.1370847260479], [-72.0415985429032, 44.1398896183297], [-72.0422825497015, 44.1453559879676], [-72.041984784014, 44.1470751428928], [-72.0430823359954, 44.1509968729291], [-72.0410570464566, 44.1546784760235], [-72.0386421233825, 44.1566537839186], [-72.0399058203038, 44.1571914086969], [-72.0424501518035, 44.156618249774], [-72.0436399344574, 44.1570992864654], [-72.0439627204204, 44.1584787412894], [-72.042151809732, 44.16141151907], [-72.0425133539508, 44.1621422338517], [-72.0470055297836, 44.1614966578697], [-72.0480863547602, 44.1623641243365], [-72.0485689153802, 44.1646966629185], [-72.0524136279291, 44.1670038106473], [-72.0565156601169, 44.1758601011086], [-72.0586845933233, 44.1817263807004], [-72.0607128814017, 44.1843059300568], [-72.0655971915352, 44.1889323014578], [-72.0661803413265, 44.190071567814], [-72.0643915344475, 44.1954555358846], [-72.0644497404914, 44.1975718128346], [-72.0599802835075, 44.200486585384], [-72.0577604474284, 44.2051988216348], [-72.0580120565051, 44.2074074710842], [-72.0587960396137, 44.2077114581231], [-72.0582985509788, 44.2083821877881], [-72.0598763820048, 44.2098884688086], [-72.0594802584118, 44.2108423704029], [-72.0587455149523, 44.2116967760267], [-72.0553638369624, 44.2130368861355], [-72.0527897656882, 44.2172516525968], [-72.052444562209, 44.2191106664527], [-72.0539115815302, 44.2226970944168], [-72.0539224397771, 44.2245574999197], [-72.0503382428239, 44.2342049783936], [-72.0483989357056, 44.2372752772282], [-72.0478801431431, 44.238930906935], [-72.0502003004448, 44.2442938026765], [-72.0534876116555, 44.2463971792117], [-72.0548544823069, 44.2479860352551], [-72.0558122268161, 44.2505585847182], [-72.059654548825, 44.2566037910344], [-72.0597722957787, 44.2577739511166], [-72.0591234975107, 44.2585952929995], [-72.059847109851, 44.2601839415364], [-72.0594174628349, 44.2618746097631], [-72.0607000566956, 44.2637667182954], [-72.0595587724257, 44.2657268020459], [-72.0592826220438, 44.2649875721149], [-72.0596892025334, 44.2640250817057], [-72.0594667983864, 44.2640054146378], [-72.059041909191, 44.2645014636684], [-72.0589926734734, 44.2649894230444], [-72.0585618016163, 44.265011517395], [-72.0586875154817, 44.2670241791705], [-72.0596345677469, 44.2677867881036], [-72.0580982459828, 44.2693793096352], [-72.0582011236393, 44.2700255330385], [-72.0621108764765, 44.2695703478321], [-72.0648508182944, 44.2676430711887], [-72.0656793600788, 44.2687445599782], [-72.0667031319063, 44.2680995622709], [-72.0673513013823, 44.2684056731631], [-72.0684549468043, 44.2712443431003], [-72.0680762874414, 44.2729147938426], [-72.0668680356924, 44.2749789100367], [-72.0661105736928, 44.2754552751441], [-72.0660161561804, 44.2764549729195], [-72.0642106195778, 44.2795838941395], [-72.0626550561673, 44.2816510494891], [-72.0611007719039, 44.2828416068868], [-72.0594242496439, 44.2859634755772], [-72.0566214674969, 44.2874621600515], [-72.053507343751, 44.290430036881], [-72.0464963680902, 44.2920481137976], [-72.0443208669574, 44.2951826221892], [-72.04027170152, 44.2957485011186], [-72.0385421863294, 44.2964558398375], [-72.0330537130027, 44.3019684716228], [-72.0323030105592, 44.3039298646587], [-72.0325088244639, 44.3112052838222], [-72.0316373714312, 44.3132971219892], [-72.0314950231014, 44.3154343341677], [-72.0332173260991, 44.3163503564073], [-72.0336394526575, 44.3173352733068], [-72.0327962415481, 44.3204930960353], [-72.0297727973268, 44.3221745262798], [-72.0285949934156, 44.3223331073949], [-72.0209197555292, 44.3209582363515], [-72.0159321126956, 44.3223806730951], [-72.009486535238, 44.3226511578827], [-72.0067009851411, 44.3232293624846], [-72.0046863860895, 44.3242392318059], [-72.0040088613687, 44.3240651165186], [-72.0012252067967, 44.3255887077233], [-71.9946334975708, 44.3275984948105], [-71.9921194389058, 44.3289565016189], [-71.9877023583682, 44.330399228174], [-71.9865586898362, 44.3314277086055], [-71.9846420025008, 44.3361615560726], [-71.981561165697, 44.3373629317819], [-71.9774117779347, 44.3375030957201], [-71.9726012891711, 44.3367449439852], [-71.9633302666065, 44.3365511980607], [-71.9579318030374, 44.3375040628656], [-71.9454686925171, 44.3377703858055], [-71.9392472084527, 44.3359212668217], [-71.9345812059871, 44.3359233753246], [-71.9287040598786, 44.3380276861612], [-71.9246623842292, 44.3422979096287], [-71.9171846900302, 44.3467251884104], [-71.9088270982107, 44.3481372166374], [-71.9048413281469, 44.3481833860613], [-71.8994146623898, 44.346923106089], [-71.8921058451383, 44.3434714085809], [-71.8845178609367, 44.3419497869558], [-71.8813312715741, 44.3401050062552], [-71.8754066821773, 44.3377067470274], [-71.8712848877295, 44.3367027248545], [-71.8621584596318, 44.340167576955], [-71.8510519395978, 44.3412657933947], [-71.8487516233948, 44.3426278526919], [-71.8420993405373, 44.3451911762607], [-71.8379010138573, 44.3479785950039], [-71.8340876611088, 44.3498292563897], [-71.8288524253446, 44.351169174702], [-71.8257805214971, 44.3529627140774], [-71.8183778629224, 44.353544433845], [-71.8154477136473, 44.3543073616395], [-71.8132663352276, 44.3554668324194], [-71.8124201593109, 44.3575689194293], [-71.8162770887487, 44.3673459755122], [-71.8158096844512, 44.3686342633029], [-71.8127448763048, 44.3708241951351], [-71.8123223327773, 44.3716259478876], [-71.8126638358299, 44.3727003990381], [-71.8154403161596, 44.3746881709848], [-71.8157402039153, 44.3754422473039], [-71.8144855152611, 44.3818126628616], [-71.8138023694704, 44.3825196201199], [-71.8091317255164, 44.3837644588273], [-71.8033708671104, 44.3832905584485], [-71.8003889738618, 44.3841894821227], [-71.7999332171566, 44.3861127863551], [-71.803503925786, 44.3903254596552], [-71.8036355780037, 44.3916596427748], [-71.8025142279007, 44.3932896470931], [-71.7954273181226, 44.3984429636661], [-71.7914647601635, 44.4002175591207], [-71.778168314039, 44.3999279414096], [-71.7678543411369, 44.4055134887519], [-71.7625939193619, 44.4070723929567], [-71.7555112664652, 44.4062063147423], [-71.7495129739005, 44.4019444578282], [-71.7472717434349, 44.4011677159905], [-71.7431501777386, 44.4013997562125], [-71.7419573466203, 44.4024999638333], [-71.7391291918614, 44.407757609216], [-71.7360292448154, 44.4102626448118], [-71.7259790442794, 44.4116295993255], [-71.722060652799, 44.4115137023185], [-71.7184039292135, 44.4104648571999], [-71.7144242830093, 44.4102797914162], [-71.7050111696108, 44.4133220296634], [-71.7039279217849, 44.4145020662853], [-71.7026660211426, 44.4148082475669], [-71.7040481990264, 44.4135955682797], [-71.696993149143, 44.4178288036931], [-71.6941316674438, 44.4202641776677], [-71.690813192661, 44.4211812569693], [-71.6890042098455, 44.422549495612], [-71.6848653167438, 44.4239129819732], [-71.6836990560947, 44.4271340469686], [-71.6829785648332, 44.4278730668641], [-71.6801123133538, 44.4281828994714], [-71.6777917325643, 44.4272018283603], [-71.6770748331718, 44.4273842165035], [-71.6767799596969, 44.4294506334421], [-71.6789481760687, 44.4327165107868], [-71.6795406237897, 44.4346107576658], [-71.6785237371983, 44.4357315394463], [-71.6766713786664, 44.4362985815151], [-71.6678337263712, 44.4367107856439], [-71.6645028416961, 44.4380808724652], [-71.6622022461032, 44.4397858785393], [-71.6588927641517, 44.4446041913951], [-71.6577908424198, 44.4481320665908], [-71.6570556378925, 44.4550497756971], [-71.6558125227247, 44.4576895937984], [-71.6542256887612, 44.4596541409023], [-71.6516609300412, 44.4612663655262], [-71.6467342653859, 44.460405043454], [-71.6445150948884, 44.4606830848097], [-71.6422615762705, 44.4618894832985], [-71.6395545768472, 44.4642502024548], [-71.6396203709012, 44.4651436260928], [-71.6404331929569, 44.4661200705921], [-71.6450919386094, 44.4681432903068], [-71.6476860433329, 44.4701092637546], [-71.6481003148282, 44.4716362342211], [-71.647757452107, 44.4731992230741], [-71.6451415476024, 44.4755667802424], [-71.6425814643892, 44.4769405256245], [-71.6388645192514, 44.4778749625616], [-71.6386321180959, 44.4786431133901], [-71.6365931281954, 44.480470084281], [-71.6348992891111, 44.4811596746467], [-71.6341184224218, 44.4809897863143], [-71.6335062041703, 44.4817400178904], [-71.6337925558377, 44.4824707853848], [-71.6332229299877, 44.4836034538684], [-71.631465473858, 44.4843609949362], [-71.6260864134651, 44.4840193814358], [-71.6244435760499, 44.4823935572615], [-71.6252258211103, 44.4809649484093], [-71.6273914336288, 44.4798683738878], [-71.633209922724, 44.4782845900552], [-71.6339643631532, 44.4792357059355], [-71.6347252729386, 44.4783561069904], [-71.6351096837697, 44.4768142621546], [-71.6340241482075, 44.4751514870274], [-71.6323946536655, 44.474323317289], [-71.6296392913816, 44.4740285910266], [-71.6246693290717, 44.4752822999603], [-71.6197619665371, 44.4839951112433], [-71.6176663818906, 44.4859388387725], [-71.6155554150084, 44.4861294979987], [-71.6124707822045, 44.4848624173147], [-71.609503202419, 44.4844007422276], [-71.5996589861763, 44.4860668448913], [-71.5983877592452, 44.4871854352461], [-71.597378312845, 44.4903038678523], [-71.5952083267997, 44.4931749740218], [-71.5945993019973, 44.5000889048674], [-71.5937529934286, 44.5012936041541], [-71.5921933020393, 44.5015728874746], [-71.5907705337491, 44.5010675014624], [-71.5896128915657, 44.4995581672803], [-71.5895321002577, 44.4983342311269], [-71.5873962588359, 44.498230880677], [-71.5858031840937, 44.4990485154252], [-71.5863855285914, 44.5029028569632], [-71.5886140149564, 44.5054403167036], [-71.5886343654131, 44.5062649159217], [-71.5880426262778, 44.5068731420919], [-71.5870038340267, 44.5070763286175], [-71.5856744726113, 44.5064466253458], [-71.584165441612, 44.5032705205264], [-71.5824673428474, 44.502017491473], [-71.5785506774995, 44.5014264637052], [-71.5768342635464, 44.5024126192856], [-71.5767934675776, 44.5038279800292], [-71.5774094964229, 44.5046971778814], [-71.5817708782443, 44.5073570043046], [-71.5837399553906, 44.5091030453683], [-71.5862770599626, 44.5146996683466], [-71.592271825839, 44.5181464534558], [-71.5941980712122, 44.5210845695286], [-71.5938969865019, 44.5222577699945], [-71.5930177833302, 44.5231526202922], [-71.5867615381993, 44.5222932699567], [-71.5838555322463, 44.5229574575431], [-71.5816018002325, 44.5241839717408], [-71.5740957522673, 44.5323912692155], [-71.5718451321719, 44.537599472093], [-71.5739633618218, 44.5401668226855], [-71.5772603823138, 44.5425216347689], [-71.5818185738898, 44.5451031187421], [-71.5869088929257, 44.5469505490786], [-71.5979689187419, 44.5541340605104], [-71.5983172475387, 44.5552946655979], [-71.5973187029229, 44.5593047977311], [-71.5934805363139, 44.5641258434931], [-71.5898770703393, 44.5658681594522], [-71.587033984473, 44.5658334968857], [-71.5824739760046, 44.5648445538851], [-71.5762233901208, 44.5651930168427], [-71.571277888816, 44.5630664144673], [-71.5691883471099, 44.5627786125241], [-71.562614309299, 44.5631716585186], [-71.5598707524727, 44.5639616550715], [-71.5584356836136, 44.5650477502512], [-71.5593084085524, 44.5682514978333], [-71.5578859594613, 44.5706150494114], [-71.5516939896853, 44.5689985524262], [-71.54987203138, 44.5692952360257], [-71.5479392453142, 44.5709745185718], [-71.5483557756933, 44.5725994852345], [-71.5525951031737, 44.5757538897835], [-71.5547603449466, 44.5789673833046], [-71.5550127020485, 44.5805384186079], [-71.5532101479091, 44.5838308182115], [-71.5517428969246, 44.5847282035426], [-71.5505177670785, 44.5838537310659], [-71.5514667237421, 44.5808264270324], [-71.5502860507819, 44.5785568027864], [-71.5483564110794, 44.5777787682748], [-71.5461878158115, 44.5779689099421], [-71.5378110402413, 44.582721642556], [-71.5365072080136, 44.5868251225573], [-71.5350658709358, 44.5883511105185], [-71.5385695665255, 44.5880402187391], [-71.5399097707459, 44.5888038334043], [-71.5403582276423, 44.5898981343782], [-71.5383889859719, 44.5913771606254], [-71.5375935691948, 44.5929324652388], [-71.5384628932811, 44.5941660278552], [-71.5395313164118, 44.5940349898777], [-71.5442526023422, 44.5904197239794], [-71.5455450658104, 44.5901144793941], [-71.5468985752663, 44.5904193389408], [-71.5476523039019, 44.5916615883991], [-71.5475281926927, 44.5924902865142], [-71.5455483895321, 44.5954127396876], [-71.5460280254555, 44.5967354992105], [-71.5470677970446, 44.5973419122857], [-71.5484948886182, 44.596891878071], [-71.5493357229329, 44.5955338706054], [-71.5522668902214, 44.5933909403429], [-71.5544571581914, 44.593416654189], [-71.5547159963086, 44.5976181272256], [-71.5538984149767, 44.5985114626612], [-71.5502732556113, 44.5996957334998], [-71.5498468624018, 44.6002921667046], [-71.5503033094829, 44.6009126837177], [-71.5516201248143, 44.6010974023868], [-71.5532468527885, 44.6000465579309], [-71.5560455343105, 44.5992768881403], [-71.5607784386529, 44.5996492440781], [-71.5619705547397, 44.600335245774], [-71.5626568905934, 44.6013861453851], [-71.5627167749281, 44.6024247924773], [-71.5620602404552, 44.6032551643679], [-71.5565594446661, 44.6034638113441], [-71.5544303518619, 44.6047842122794], [-71.5537593886353, 44.606067619037], [-71.5536880567324, 44.6085908681539], [-71.5552494914182, 44.612099193598], [-71.5567913875657, 44.6177674212456], [-71.5564783695796, 44.6216129975349], [-71.5553456147483, 44.6253867282585], [-71.5528652906271, 44.6250838779462], [-71.5507523266867, 44.6232264436109], [-71.5476722669955, 44.6219633157082], [-71.5469259447828, 44.6220547322075], [-71.5463699318689, 44.6230596249243], [-71.5478403717383, 44.6251615135781], [-71.5510197940898, 44.624536704032], [-71.5522604141085, 44.6253556768089], [-71.5528693304627, 44.6267649663366], [-71.5565344256089, 44.6271912076999], [-71.557315551657, 44.6281687380367], [-71.5570997193085, 44.6294399452343], [-71.5559344138493, 44.6298530508184], [-71.5542436832434, 44.6295345280523], [-71.5521507096573, 44.6273591586559], [-71.5476600280841, 44.628445536527], [-71.5470120220328, 44.6289234780077], [-71.5469929951861, 44.6296780845221], [-71.5489271803133, 44.6306824128544], [-71.5515958674413, 44.6295854631587], [-71.554130639641, 44.6299613237264], [-71.5584678919104, 44.6341305943945], [-71.5637992185511, 44.636669814723], [-71.5643741396186, 44.6382659468297], [-71.5639447455886, 44.639228221743], [-71.5598907517828, 44.6395664080934], [-71.5585869823974, 44.640374686197], [-71.5582496505339, 44.6414362394301], [-71.5583515860175, 44.6427632927658], [-71.5592179393073, 44.6442137223453], [-71.562461472299, 44.6472568376757], [-71.5625486862585, 44.6511319739048], [-71.5632605201402, 44.6524997496507], [-71.5651983207511, 44.6536416066941], [-71.5662868620086, 44.6536960477343], [-71.5671764993018, 44.6514674710874], [-71.5682397292241, 44.650273769748], [-71.5712179999405, 44.6494575073491], [-71.5775689594323, 44.6504995219114], [-71.5806357419661, 44.6518932979688], [-71.5795676203579, 44.6525656632873], [-71.5769535329009, 44.6527065488399], [-71.5754060297197, 44.6533226224013], [-71.5748036443359, 44.6542820078207], [-71.5751317019997, 44.6556775571625], [-71.5763961972542, 44.6560878042793], [-71.5803962355838, 44.6550105759815], [-71.5827615645597, 44.6554200735943], [-71.5854274527554, 44.6569473758324], [-71.5882814073279, 44.6603858323928], [-71.5879372221335, 44.6612596932967], [-71.5858192087082, 44.6626830742506], [-71.5852761955491, 44.6639049534819], [-71.5855157529922, 44.6662807605998], [-71.5879119836427, 44.6687716340117], [-71.5881644798227, 44.6700646694672], [-71.5871265510602, 44.6708141063152], [-71.5827885477666, 44.6716766533287], [-71.581887772838, 44.6723679284851], [-71.5818223814986, 44.6735059772335], [-71.5832472608233, 44.6741862404175], [-71.5868920475923, 44.6736609143296], [-71.5888356204723, 44.6745569138909], [-71.5904178869557, 44.6765590580009], [-71.5930125174798, 44.6761636645464], [-71.5971701930662, 44.6781133365262], [-71.5973146932535, 44.6789120738052], [-71.5953996720729, 44.6818779751182], [-71.5970141554276, 44.6830026866385], [-71.5978562697949, 44.6847736217477], [-71.5991103935223, 44.6851065027233], [-71.5985544430341, 44.6867354563616], [-71.5988840655023, 44.6876547991811], [-71.597339452765, 44.6889165173538], [-71.5976351246878, 44.6903156102477], [-71.5988369779471, 44.6922370525811], [-71.596749126675, 44.6949183161901], [-71.5944089241145, 44.6953616164938], [-71.594247151617, 44.6962131798525], [-71.5963836777346, 44.6971702419802], [-71.5993736360843, 44.697455736263], [-71.6014291468371, 44.6988053278812], [-71.6015871869206, 44.7002447192794], [-71.5993987656567, 44.702508485079], [-71.5990744401443, 44.7034059275162], [-71.6001929439294, 44.7055552727428], [-71.6014888264357, 44.7066036122724], [-71.604876916661, 44.707954076648], [-71.6089667172164, 44.7137024647069], [-71.6126368669938, 44.7167354770659], [-71.6146953709323, 44.7177628598392], [-71.6171178232724, 44.7210316326287], [-71.6191936875798, 44.7220781467434], [-71.6184384144494, 44.72607240729], [-71.6174216529231, 44.7285765539797], [-71.619229709858, 44.7287294577233], [-71.6235222374193, 44.7269210949442], [-71.6251773593344, 44.7272433548264], [-71.6265473540286, 44.7283109610657], [-71.6266334846832, 44.7329302994194], [-71.6260521726809, 44.7354074326085], [-71.6252529734902, 44.736706716693], [-71.6268718358745, 44.7403971078477], [-71.6269691253616, 44.7424313663758], [-71.6257092723036, 44.7429809278854], [-71.6256914797226, 44.7436335823471], [-71.6274233385166, 44.7469956433437], [-71.63215050002, 44.7486366414389], [-71.6328123357249, 44.7510354140596], [-71.6324170001713, 44.7520015152844], [-71.6307584808856, 44.7534903923549], [-71.6257305918614, 44.7539725150601], [-71.6231359984318, 44.7556776456599], [-71.618784727172, 44.7570794054657], [-71.6167336190647, 44.7568800704997], [-71.6132252839964, 44.7590756389263], [-71.6137207140995, 44.7618223864237], [-71.6128262371369, 44.7623719401076], [-71.6114020433974, 44.7657930893676], [-71.6089094922259, 44.7661150896139], [-71.6063576933842, 44.767287517959], [-71.6033924252883, 44.7693030907406], [-71.6012058774442, 44.7731529530926], [-71.5953493720037, 44.7757253271601], [-71.5952426489361, 44.7764271230514], [-71.5965876550999, 44.7787139759369], [-71.5947025135461, 44.7812633993934], [-71.5926627516784, 44.7827829767612], [-71.5862965781068, 44.784175205657], [-71.5835024422268, 44.7853464382319], [-71.5808823745079, 44.7848979301252], [-71.5793605180142, 44.7851264840192], [-71.5759386289578, 44.7896345995698], [-71.5732733889341, 44.790910654371], [-71.5727412379763, 44.792827793439], [-71.5715571991283, 44.7938920197404], [-71.5729855872692, 44.7965655170929], [-71.5732373410014, 44.7994319290311], [-71.5718037552685, 44.8018703412115], [-71.5705846845015, 44.802812785165], [-71.5704337666187, 44.8038829718289], [-71.5687004529716, 44.8066379155902], [-71.5701889890261, 44.8082929833171], [-71.5718007903077, 44.8091489355173], [-71.5731791041195, 44.8110101314084], [-71.5768248661115, 44.8126897082015], [-71.5772521293999, 44.8133741108803], [-71.5772389345048, 44.81524785222], [-71.5735619445193, 44.8209395105678], [-71.5656656205018, 44.8244419878801], [-71.5646601630158, 44.8243920929138], [-71.5638793042059, 44.8232309541819], [-71.5623064355754, 44.8237942497462], [-71.5615284068377, 44.8248235439998], [-71.559404243621, 44.8307613690517], [-71.5573950051459, 44.8343471519313], [-71.5535615372034, 44.8354179015313], [-71.5512380935967, 44.8374628790746], [-71.5511268005047, 44.8388881003805], [-71.5519394801164, 44.8421468691445], [-71.5539104196994, 44.8452588323808], [-71.555990659625, 44.8467880411937], [-71.5563269974753, 44.8479121708846], [-71.5559857917067, 44.84974989263], [-71.5538682864053, 44.8519275535861], [-71.5508167092311, 44.85416679658], [-71.5479951557562, 44.8551161772766], [-71.5472714380573, 44.8579965276774], [-71.5491606055167, 44.858337043186], [-71.5501085317146, 44.8594202063627], [-71.5505887228603, 44.8607575619995], [-71.5499667104604, 44.8621428020208], [-71.5459333510015, 44.8663544763842], [-71.5403633642596, 44.8687077988322], [-71.5359217904258, 44.8690644475688], [-71.5331304895562, 44.870355579087], [-71.5310445725779, 44.8727481504981], [-71.5291792005968, 44.8737632148277], [-71.5293675807204, 44.8761005549429], [-71.5289003533277, 44.8777989825414], [-71.5274599831381, 44.8788176312404], [-71.5244448152056, 44.8789545353143], [-71.523208226201, 44.8795210507588], [-71.5222278115792, 44.8804872284477], [-71.5212378921046, 44.8829739443736], [-71.5187520598666, 44.8851493146177], [-71.511847910431, 44.8839571883798], [-71.5122767516525, 44.8845416825799], [-71.5146428442923, 44.884840727031], [-71.5160978973716, 44.8856337400521], [-71.5156002048351, 44.8870943699508], [-71.5109875656458, 44.8905487597988], [-71.5134450312238, 44.8918895984126], [-71.5144766205264, 44.8934627693535], [-71.5142382406675, 44.8946702418796], [-71.508495674084, 44.8964795906835], [-71.5076233536928, 44.8996967337505], [-71.5036498339139, 44.9014739531741], [-71.5008513459773, 44.9048304387202], [-71.4987973366272, 44.9048481738743], [-71.4965399010319, 44.9036545567965], [-71.4950006661214, 44.9047029684312], [-71.4952923008561, 44.9061989742061], [-71.4963213045012, 44.9071717042976], [-71.4966393949032, 44.9083725983231], [-71.4955724723416, 44.9100553507148], [-71.4934530769487, 44.9105072349287], [-71.4934239480758, 44.9114069456278], [-71.4953262455408, 44.9116498380181], [-71.4991765939277, 44.9106550862459], [-71.5006492808916, 44.9113617898617], [-71.5012337838489, 44.9147207499279], [-71.5041580527891, 44.918501927392], [-71.507901054977, 44.9214296822331], [-71.5093027716215, 44.9237156587078], [-71.5118145814886, 44.9245993229254], [-71.5126693309352, 44.9261518936682], [-71.5148880015993, 44.9261567467036], [-71.5158411262767, 44.9266650278216], [-71.5161492965424, 44.9276605154704], [-71.515697784528, 44.9281899800476], [-71.5132853317519, 44.928933426713], [-71.513664867689, 44.9298651962031], [-71.5161155521779, 44.9315734225636], [-71.516240891489, 44.9349791289375], [-71.5202432158722, 44.9368265662417], [-71.5212886366838, 44.9376426272244], [-71.5219092179347, 44.9391932099751], [-71.5226502132721, 44.9395852402543], [-71.5227337011327, 44.9401906691603], [-71.521734431599, 44.9408012273136], [-71.520407474971, 44.9391922150106], [-71.518156575559, 44.9384990583796], [-71.5165063863183, 44.9391348373119], [-71.5156896493683, 44.940442067164], [-71.5153005627993, 44.9439839438495], [-71.5180768824534, 44.9444154936477], [-71.5190474281631, 44.9452816821982], [-71.5171456915902, 44.9468285004981], [-71.5168693240508, 44.9480903519091], [-71.5190827358957, 44.9488403527087], [-71.5196011680148, 44.9495090924681], [-71.5191563748562, 44.9504243117179], [-71.516563522972, 44.951861514588], [-71.5160555626131, 44.9527761782805], [-71.5159782317152, 44.9558770998484], [-71.5152641264238, 44.958497308524], [-71.5162954517583, 44.9615213954401], [-71.5164437601857, 44.9642354204735], [-71.5172652492682, 44.9643394998476], [-71.5197231216682, 44.9631793654469], [-71.5231990646932, 44.9635955559516], [-71.5241198747331, 44.9640991662575], [-71.5243716654614, 44.9644097932149], [-71.5238189839293, 44.9651740981659], [-71.5184650569284, 44.9669732988411], [-71.5179395413295, 44.9677291715366], [-71.5192628482384, 44.9678233320772], [-71.5211520303679, 44.9667992008676], [-71.5234612370282, 44.9667527417823], [-71.524099653133, 44.9676389919082], [-71.5221710055085, 44.9684208579959], [-71.5218679785443, 44.9690658080566], [-71.5247955287644, 44.9693022255272], [-71.5262127595367, 44.9701638862293], [-71.5273687798799, 44.9730117462051], [-71.5298818291298, 44.9741306018316], [-71.5314560766174, 44.9754893598892], [-71.5328094992289, 44.979784022402], [-71.5344862354126, 44.9806172718674], [-71.5362581228996, 44.9803751470115], [-71.5372517740248, 44.9807841486775], [-71.5375522954685, 44.9813127453994], [-71.5368928946263, 44.9839833916801], [-71.5383466415288, 44.9845664269685], [-71.5413700807444, 44.9840033794073], [-71.5414604615957, 44.9852571589145], [-71.5386996900975, 44.9873480984288], [-71.5390888201135, 44.9887768538746], [-71.5387587628399, 44.9893975026554], [-71.5356202385416, 44.9893744615232], [-71.533067324082, 44.9910404810946], [-71.5336917030438, 44.9917351616716], [-71.5370858446668, 44.9925054050998], [-71.5369267363361, 44.9937897007115], [-71.5338252628127, 44.9966491917837], [-71.5330320757562, 44.9967258047645], [-71.5317497117523, 44.9987458444941], [-71.5285676226985, 45.0005878388819], [-71.5243993227469, 45.0023903666165], [-71.52160232401, 45.0022692525552], [-71.5142847650551, 45.0045272539888], [-71.5090398029201, 45.0079709909001], [-71.5057447769814, 45.0080422348436], [-71.5046092977483, 45.0085792800392], [-71.5011875636768, 45.0069538559782], [-71.4985255208394, 45.0039043873205], [-71.4957126487276, 45.0049011208289], [-71.4943712799585, 45.0042631009657], [-71.4945281867263, 45.0037335618964], [-71.4939948806138, 45.0031431442793], [-71.4909048782712, 45.0025182811842], [-71.4898145954834, 45.0019253495268], [-71.4897961270354, 45.0012585656572], [-71.4884139448116, 45.0008510214098], [-71.4869194033554, 45.0022859233714], [-71.4807368429591, 45.0024923180645], [-71.4798902983815, 45.0034871177584], [-71.4794299724404, 45.0063742684773], [-71.4779585156921, 45.0092647871252], [-71.472984895377, 45.0110441867631], [-71.4665855870953, 45.0118554536209], [-71.4659955977556, 45.0120441233772], [-71.4654739279762, 45.0136802406918], [-71.5010202485413, 45.0134549403033]]]}}]}